STARLINK-34771          
1 65078U 25167A   25244.25002315 -.01590729  00000+0 -33521-1 0  9991
2 65078  53.1596 190.4548 0001339  99.6091 201.7959 15.47794323  5719
STARLINK-34634          
1 65079U 25167B   25244.25002315 -.01594698  00000+0 -35459-1 0  9993
2 65079  53.1597 190.5360 0001539  91.8954 169.4936 15.46262624  5660
STARLINK-34267          
1 65080U 25167C   25244.25002315 -.00050068  00000+0 -89767-3 0  9995
2 65080  53.1597 190.4531 0000800 104.9792 196.9045 15.49317485  5718
STARLINK-34561          
1 65081U 25167D   25244.25002315 -.01596164  00000+0 -32971-1 0  9992
2 65081  53.1599 190.4117 0001252  97.3215 224.9225 15.48372334  5713
STARLINK-34626          
1 65082U 25167E   25244.21797550  .00043170  00000+0  10829-2 0  9991
2 65082  53.1597 192.3022 0001351  94.2976 265.8183 15.39626960  4395
STARLINK-34247          
1 65083U 25167F   25244.25002315 -.01590186  00000+0 -34654-1 0  9992
2 65083  53.1597 190.4919 0001309  92.8614 190.2596 15.46833812  5716
STARLINK-34601          
1 65084U 25167G   25244.13320711  .00254855  00000+0  16898-2 0  9991
2 65084  53.1575 190.3014 0000881  60.3393 299.7714 15.74223693  4410
STARLINK-34792          
1 65085U 25167H   25244.19635680  .00226595  00000+0  15060-2 0  9992
2 65085  53.1579 189.9829 0001182 121.8775 238.2360 15.74254288  4425
STARLINK-34822          
1 65086U 25167J   25244.25950980  .00248039  00000+0  16441-2 0  9994
2 65086  53.1586 189.6660 0001173  52.3510 307.7616 15.74250822  4436
STARLINK-34686          
1 65087U 25167K   25244.13218924  .00241187  00000+0  15976-2 0  9996
2 65087  53.1579 190.2940 0001075 107.6173 252.4965 15.74287602  4415
STARLINK-34594          
1 65088U 25167L   25244.25883117  .00202503  00000+0  13507-2 0  9999
2 65088  53.1580 189.6614 0001083  94.4269 265.6875 15.74244573  4434
STARLINK-34665          
1 65089U 25167M   25244.25849251  .00340590  00000+0  22271-2 0  9998
2 65089  53.1576 189.6588 0001057  36.5778 323.5314 15.74292427  4436
STARLINK-34673          
1 65090U 25167N   25244.25815599  .00231186  00000+0  15365-2 0  9994
2 65090  53.1578 189.6564 0001198  94.7759 265.3398 15.74239687  4439
STARLINK-34648          
1 65091U 25167P   25244.13083983  .00319534  00000+0  21002-2 0  9995
2 65091  53.1579 190.2839 0001228  75.2649 284.8507 15.74234104  4415
STARLINK-34640          
1 65092U 25167Q   25244.25747940  .00338361  00000+0  22170-2 0  9995
2 65092  53.1580 189.6513 0001323 106.7564 253.3601 15.74252035  4432
STARLINK-34266          
1 65093U 25167R   25244.13016163  .00194244  00000+0  12961-2 0  9996
2 65093  53.1579 190.2790 0001310 113.7270 246.3888 15.74262802  4414
STARLINK-34769          
1 65094U 25167S   25244.12982755  .00331419  00000+0  21757-2 0  9995
2 65094  53.1578 190.2766 0001488  64.3424 295.7749 15.74227511  4417
STARLINK-34768          
1 65095U 25167T   25244.25646522  .00267134  00000+0  17653-2 0  9991
2 65095  53.1570 189.6439 0001282  79.3363 280.7801 15.74264027  4437
STARLINK-34759          
1 65096U 25167U   25244.19263771  .00227746  00000+0  15138-2 0  9997
2 65096  53.1583 189.9568 0000794  96.0955 264.0156 15.74248291  4420
STARLINK-34741          
1 65097U 25167V   25244.12880854  .00223194  00000+0  14824-2 0  9992
2 65097  53.1587 190.2702 0001331 109.6458 250.4705 15.74279839  4417
STARLINK-34764          
1 65098U 25167W   25244.12813395  .00476441  00000+0  30702-2 0  9997
2 65098  53.1588 190.2652 0000797 100.1352 259.9758 15.74238450  4413
STARLINK-34815          
1 65099U 25167X   25244.25545102  .00161568  00000+0  10852-2 0  9995
2 65099  53.1580 189.6372 0001366 100.3930 259.7244 15.74215627  4435
STARLINK-34814          
1 65100U 25167Y   25244.12779773  .00358503  00000+0  23447-2 0  9998
2 65100  53.1586 190.2632 0001731 109.2971 250.8236 15.74235921  4410
STARLINK-34285          
1 65101U 25167Z   25244.19094697  .00318627  00000+0  20967-2 0  9998
2 65101  53.1580 189.9460 0001640 108.8457 251.2741 15.74210165  4422
STARLINK-34857          
1 65102U 25167AA  25244.12678274  .00315123  00000+0  20731-2 0  9998
2 65102  53.1586 190.2560 0001351 106.6788 253.4380 15.74226202  4418
STARLINK-34887          
1 65103U 25167AB  25244.12712054  .00420252  00000+0  27283-2 0  9993
2 65103  53.1577 190.2584 0001314 111.1097 249.0063 15.74228801  4414
STARLINK-34481          
1 65104U 25167AC  25244.12644527  .00324154  00000+0  21307-2 0  9998
2 65104  53.1581 190.2539 0001130  58.7074 301.4056 15.74219591  4418
STARLINK-34545          
1 65105U 25167AD  25244.12610886  .00342205  00000+0  22451-2 0  9998
2 65105  53.1584 190.2520 0001331  82.9866 277.1305 15.74211092  4417
HULIANWANG DIGUI-49     
1 65106U 25168A   25244.14066189  .00000117  00000+0  18873-3 0  9990
2 65106  50.0040 306.2816 0009657 319.3490  40.6690 13.97216243  3872
HULIANWANG DIGUI-50     
1 65107U 25168B   25244.28140123  .00000094  00000+0  17092-3 0  9993
2 65107  50.0015 305.6785 0009237 314.1143  45.8998 13.97734550  3891
HULIANWANG DIGUI-51     
1 65108U 25168C   25244.28059300  .00000106  00000+0  17946-3 0  9992
2 65108  50.0054 305.6916 0009353 315.5389  44.4762 13.97735891  3890
HULIANWANG DIGUI-52     
1 65109U 25168D   25244.27929956 -.00000100  00000+0  34476-4 0  9998
2 65109  50.0049 305.6826 0009067 320.9719  39.0528 13.97442615  3893
HULIANWANG DIGUI-53     
1 65110U 25168E   25244.27740088  .00000095  00000+0  17115-3 0  9999
2 65110  50.0055 305.6762 0008487 320.3550  39.6731 13.97995721  3896
HULIANWANG DIGUI-54     
1 65111U 25168F   25244.27552685  .00000089  00000+0  16673-3 0  9995
2 65111  50.0002 305.6420 0007998 324.4901  35.5468 13.98116374  3893
HULIANWANG DIGUI-55     
1 65112U 25168G   25244.27502204  .00000095  00000+0  17057-3 0  9992
2 65112  50.0011 305.6426 0008539 312.5768  47.4412 13.98151984  3898
HULIANWANG DIGUI-56     
1 65113U 25168H   25244.27379691  .00000105  00000+0  17794-3 0  9995
2 65113  50.0006 305.6330 0007599 315.2935  44.7354 13.97912861  3891
HULIANWANG DIGUI-57     
1 65114U 25168J   25244.26969644  .00000103  00000+0  17531-3 0  9995
2 65114  50.0030 305.6228 0007146 319.3456  40.6912 13.98444674  3906
CZ-12 R/B               
1 65115U 25168K   25244.20225172  .00000167  00000+0  15687-3 0  9991
2 65115  49.9848 302.5404 0076705 211.3646 148.2677 14.16459748  3948
QPS-SAR-12 (KUSHINADA-I)
1 65116U 25169A   25244.22106429  .00008790  00000+0  76637-3 0  9990
2 65116  42.0113 163.0723 0004309  99.2950 260.8362 14.96977188  4049
ELECTRON KICK STAGE R/B 
1 65117U 25169B   25244.14569723  .00008463  00000+0  72927-3 0  9997
2 65117  42.0108 163.3728 0005585  95.6372 264.5090 14.97462866  4038
ELECTRON R/B            
1 65118U 25169C   25243.45929058  .01697247  79526-5  16495-2 0  9999
2 65118  42.0140 150.0608 0125608  86.4771 275.0446 15.96233071  4132
GEESAT-4 A              
1 65119U 25170A   25244.37812413  .00005296  00000+0  61671-3 0  9998
2 65119  49.9867  74.8588 0014439  23.4049 336.7545 14.86519974  3538
GEESAT-4 B              
1 65120U 25170B   25244.36878100  .00004998  00000+0  58657-3 0  9992
2 65120  49.9842  74.8013 0008630  57.0484 303.1284 14.86333942  3557
GEESAT-4 C              
1 65121U 25170C   25239.90441403  .00005634  00000+0  59481-3 0  9993
2 65121  49.9877  95.2913 0012832  10.7053 349.4159 14.90442868  2869
GEESAT-4 D              
1 65122U 25170D   25241.71284655  .00004284  00000+0  45233-3 0  9990
2 65122  49.9831  86.7913 0013492  21.7188 338.4323 14.90973457  3134
GEESAT-4 E              
1 65123U 25170E   25244.24177662  .00004945  00000+0  57908-3 0  9997
2 65123  49.9913  75.4775 0020809  17.8999 342.2669 14.86346976  3505
GEESAT-4 F              
1 65124U 25170F   25244.22671470  .00005085  00000+0  59520-3 0  9990
2 65124  49.9831  75.3700 0017930  10.6463 349.4853 14.86343231  3505
GEESAT-4 G              
1 65125U 25170G   25236.61757513  .00001925  00000+0  21967-3 0  9991
2 65125  49.9903 110.6755 0015494   7.2407 352.8755 14.90410992  2379
GEESAT-4 H              
1 65126U 25170H   25241.84380943  .00004368  00000+0  45819-3 0  9998
2 65126  49.9822  86.1419 0013934  23.6845 336.4735 14.91192209  3151
GEESAT-4 J              
1 65127U 25170J   25241.84330905  .00004376  00000+0  45859-3 0  9995
2 65127  49.9883  86.1483 0014082  19.0758 341.0708 14.91228766  3157
GEESAT-4 K              
1 65128U 25170K   25244.21935777  .00005169  00000+0  60122-3 0  9999
2 65128  49.9924  75.3374 0032491  37.1348 323.1830 14.86338137  3507
GEESAT-4 L              
1 65129U 25170L   25244.32179022  .00006135  00000+0  63330-3 0  9993
2 65129  49.9865  74.5099 0015206  30.0619 330.1192 14.91192324  3528
KUIPER-00081            
1 65132U 25171A   25244.21340089  .00044550  00000+0  12533-2 0  9990
2 65132  51.8769 304.8740 0005054 193.9716 166.1132 15.36034667  4433
KUIPER-00088            
1 65133U 25171B   25244.21412059  .00024173  00000+0  68687-3 0  9999
2 65133  51.8770 304.8804 0004615 192.3533 167.7341 15.36033403  4435
KUIPER-00095            
1 65134U 25171C   25244.22195671  .00037557  00000+0  10810-2 0  9993
2 65134  51.8769 304.9267 0004368 225.4078 134.6552 15.35399690  4434
KUIPER-00096            
1 65135U 25171D   25244.21884013  .00022789  00000+0  65667-3 0  9990
2 65135  51.8767 304.9049 0004283 213.1484 146.9234 15.35631898  4434
KUIPER-00097            
1 65136U 25171E   25244.22285320  .00021832  00000+0  63569-3 0  9995
2 65136  51.8771 304.9315 0004489 228.6491 131.4109 15.35329717  4426
KUIPER-00098            
1 65137U 25171F   25244.21334505  .00030020  00000+0  85069-3 0  9993
2 65137  51.8772 304.8731 0005104 195.7571 164.3257 15.35996468  3776
KUIPER-00099            
1 65138U 25171G   25244.21545779  .00031583  00000+0  89753-3 0  9990
2 65138  51.8773 304.8889 0004982 199.7995 160.2798 15.35882035  4421
